{
    "links": {
        "self": "http://www.neowsapp.com/rest/v1/neo/3446998?api_key=iIulBulltgU6a56xZRHN4H3l9WmuAYTsLGpBGhQ2"
    },
    "id": "3446998",
    "neo_reference_id": "3446998",
    "name": "(2009 DD)",
    "designation": "2009 DD",
    "nasa_jpl_url": "http://ssd.jpl.nasa.gov/sbdb.cgi?sstr=3446998",
    "absolute_magnitude_h": 25.4,
    "estimated_diameter": {
        "kilometers": {
            "estimated_diameter_min": 0.022108281,
            "estimated_diameter_max": 0.0494356193
        },
        "meters": {
            "estimated_diameter_min": 22.1082810359,
            "estimated_diameter_max": 49.435619262
        },
        "miles": {
            "estimated_diameter_min": 0.0137374447,
            "estimated_diameter_max": 0.0307178602
        },
        "feet": {
            "estimated_diameter_min": 72.5337327539,
            "estimated_diameter_max": 162.1903570994
        }
    },
    "is_potentially_hazardous_asteroid": false,
    "close_approach_data": [
        {
            "close_approach_date": "2009-02-17",
            "close_approach_date_full": "2009-Feb-17 01:16",
            "epoch_date_close_approach": 1234833360000,
            "relative_velocity": {
                "kilometers_per_second": "6.8483496593",
                "kilometers_per_hour": "24654.0587734682",
                "miles_per_hour": "15319.0733528808"
            },
            "miss_distance": {
                "astronomical": "0.0350251768",
                "lunar": "13.6247937752",
                "kilometers": "5239691.845653416",
                "miles": "3255793.5397365008"
            },
            "orbiting_body": "Earth"
        },
        {
            "close_approach_date": "2151-04-09",
            "close_approach_date_full": "2151-Apr-09 12:00",
            "epoch_date_close_approach": 5720328000000,
            "relative_velocity": {
                "kilometers_per_second": "15.3602950563",
                "kilometers_per_hour": "55297.0622025281",
                "miles_per_hour": "34359.4440113431"
            },
            "miss_distance": {
                "astronomical": "0.3261954241",
                "lunar": "126.8900199749",
                "kilometers": "48798140.649106667",
                "miles": "30321758.5607273246"
            },
            "orbiting_body": "Earth"
        }
    ],
    "orbital_data": {
        "orbit_id": "14",
        "orbit_determination_date": "2017-04-06 09:01:20",
        "first_observation_date": "2009-02-16",
        "last_observation_date": "2009-03-19",
        "data_arc_in_days": 31,
        "observations_used": 62,
        "orbit_uncertainty": "8",
        "minimum_orbit_intersection": ".0337275",
        "jupiter_tisserand_invariant": "3.637",
        "epoch_osculation": "2454887.5",
        "eccentricity": ".4974705473311173",
        "semi_major_axis": "2.034289530600184",
        "inclination": "5.768037051099686",
        "ascending_node_longitude": "149.2561775455781",
        "orbital_period": "1059.784523183839",
        "perihelion_distance": "1.022290404382549",
        "perihelion_argument": "1.58583391172191",
        "aphelion_distance": "3.046288656817819",
        "perihelion_time": "2454881.340148205747",
        "mean_anomaly": "2.09245049103855",
        "mean_motion": ".3396916940421777",
        "equinox": "J2000",
        "orbit_class": {
            "orbit_class_type": "AMO",
            "orbit_class_description": "Near-Earth asteroid orbits similar to that of 1221 Amor",
            "orbit_class_range": "1.017 AU < q (perihelion) < 1.3 AU"
        }
    },
    "is_sentry_object": false
}